NORAD_CAT_ID,OBJECT_NAME,OBJECT_TYPE,EPOCH,MEAN_MOTION,ECCENTRICITY,INCLINATION,RA_OF_ASC_NODE,ARG_OF_PERICENTER,MEAN_ANOMALY,BSTAR,MEAN_MOTION_DOT,MEAN_MOTION_DDOT,TLE_LINE0,TLE_LINE1,TLE_LINE2,SEMIMAJOR_AXIS,PERIOD,APOGEE,PERIGEE,DECAYED
51990.0,STARLINK-3657,PAYLOAD,2022-10-18 01:21:32,15.08833448,0.0001239,53.217,179.5565,86.4405,273.6728,-6.679e-05,-1.35e-05,0.0,0 STARLINK-3657,1 51990U 22025AL  22291.05662109 -.00001350  00000-0 -66790-4 0  9993,2 51990  53.2170 179.5565 0001239  86.4405 273.6728 15.08833448 35449,6917.9,95.438,540.623,538.908,0.0
51990.0,STARLINK-3657,PAYLOAD,2022-10-18 17:15:24,15.08821211,0.0001344,53.2171,176.583,77.3193,282.7949,9.5317e-05,1.229e-05,0.0,0 STARLINK-3657,1 51990U 22025AL  22291.71902943  .00001229  00000-0  95317-4 0  9999,2 51990  53.2171 176.5830 0001344  77.3193 282.7949 15.08821211 34442,6917.938,95.439,540.7330000000002,538.873,0.0
51990.0,STARLINK-3657,PAYLOAD,2022-10-19 09:09:15,15.08834603,0.0001365,53.217,173.6095,77.3051,282.8093,0.00012213,1.656e-05,0.0,0 STARLINK-3657,1 51990U 22025AL  22292.38142562  .00001656  00000-0  12213-3 0  9993,2 51990  53.2170 173.6095 0001365  77.3051 282.8093 15.08834603 34549,6917.897,95.438,540.706,538.818,0.0
51990.0,STARLINK-3657,PAYLOAD,2022-10-19 21:52:20,15.08831552,0.0001406999999999,53.2171,171.2314,82.3799,277.7353,3.6683e-05,2.96e-06,0.0,0 STARLINK-3657,1 51990U 22025AL  22292.91135191  .00000296  00000-0  36683-4 0  9999,2 51990  53.2171 171.2314 0001407  82.3799 277.7353 15.08831552 34621,6917.906,95.438,540.745,538.798,0.0
51990.0,STARLINK-3657,PAYLOAD,2022-10-20 01:03:07,15.08832754,0.0001415,53.217,170.6368,82.4422,277.673,4.4716e-05,4.24e-06,0.0,0 STARLINK-3657,1 51990U 22025AL  22293.04383155  .00000424  00000-0  44716-4 0  9998,2 51990  53.2170 170.6368 0001415  82.4422 277.6730 15.08832754 34640,6917.903,95.438,540.746,538.789,0.0
51990.0,STARLINK-3657,PAYLOAD,2022-10-21 08:50:49,15.0884128,0.0001205,53.2165,164.6884,83.3661,276.7468,1.8531e-05,7e-08,0.0,0 STARLINK-3657,1 51990U 22025AL  22294.36862672  .00000007  00000-0  18531-4 0  9993,2 51990  53.2165 164.6884 0001205  83.3661 276.7468 15.08841280 35948,6917.876,95.437,540.575,538.908,0.0
51990.0,STARLINK-3657,PAYLOAD,2022-10-21 18:23:08,15.08838137,0.0001063,53.2168,162.9034,85.1321,274.9793,6.7536e-05,7.87e-06,0.0,0 STARLINK-3657,1 51990U 22025AL  22294.76606602  .00000787  00000-0  67536-4 0  9990,2 51990  53.2168 162.9034 0001063  85.1321 274.9793 15.08838137 34907,6917.886,95.438,540.486,539.016,0.0
51990.0,STARLINK-3657,PAYLOAD,2022-10-22 08:41:36,15.08838683,0.0001571,53.217,160.2289,80.4484,279.6686,-7.4124e-06,-4.06e-06,0.0,0 STARLINK-3657,1 51990U 22025AL  22295.36222849 -.00000406  00000-0 -74124-5 0  9996,2 51990  53.2170 160.2289 0001571  80.4484 279.6686 15.08838683 34993,6917.884,95.438,540.836,538.663,0.0
51990.0,STARLINK-3657,PAYLOAD,2022-10-22 21:24:40,15.08846184,0.0001296999999999,53.2158,157.8495,83.6585,276.4555,9.0021e-05,1.145e-05,0.0,0 STARLINK-3657,1 51990U 22025AL  22295.89213818  .00001145  00000-0  90021-4 0  9992,2 51990  53.2158 157.8495 0001297  83.6585 276.4555 15.08846184 35077,6917.861,95.437,540.624,538.8290000000002,0.0
51990.0,STARLINK-3657,PAYLOAD,2022-10-23 02:10:49,15.08847609,0.0001324,53.2163,156.957,84.8456,275.2687,0.00010001,1.304e-05,0.0,0 STARLINK-3657,1 51990U 22025AL  22296.09085613  .00001304  00000-0  10001-3 0  9991,2 51990  53.2163 156.9570 0001324  84.8456 275.2687 15.08847609 35108,6917.857,95.437,540.638,538.806,0.0
51990.0,STARLINK-3657,PAYLOAD,2022-10-23 19:40:04,15.08847328,0.0001471,53.2161,153.6864,83.5623,276.5537,4.2926e-05,3.95e-06,0.0,0 STARLINK-3657,1 51990U 22025AL  22296.81949629  .00000395  00000-0  42926-4 0  9998,2 51990  53.2161 153.6864 0001471  83.5623 276.5537 15.08847328 35219,6917.858,95.437,540.741,538.705,0.0
51990.0,STARLINK-3657,PAYLOAD,2022-10-24 02:01:36,15.08852692,0.0001448,53.2162,152.4971,84.2362,275.8795,3.721e-05,3.04e-06,0.0,0 STARLINK-3657,1 51990U 22025AL  22297.08445160  .00000304  00000-0  37210-4 0  9999,2 51990  53.2162 152.4971 0001448  84.2362 275.8795 15.08852692 35250,6917.842,95.437,540.7080000000002,538.705,0.0
51990.0,STARLINK-3657,PAYLOAD,2022-10-24 16:20:06,15.08834025,0.0001323,53.2163,149.8202,95.1034,265.0109,-8.0369e-05,-1.567e-05,0.0,0 STARLINK-3657,1 51990U 22025AL  22297.68062699 -.00001567  00000-0 -80369-4 0  9994,2 51990  53.2163 149.8202 0001323  95.1034 265.0109 15.08834025 35347,6917.899,95.438,540.679,538.8480000000002,0.0
51990.0,STARLINK-3657,PAYLOAD,2022-10-25 01:52:26,15.08815764,0.0001227,53.2166,148.0374,82.9067,277.2065,-0.00024392,-4.165e-05,0.0,0 STARLINK-3657,1 51990U 22025AL  22298.07808864 -.00004165  00000-0 -24392-3 0  9990,2 51990  53.2166 148.0374 0001227  82.9067 277.2065 15.08815764 36508,6917.954000000002,95.439,540.668,538.971,0.0
51990.0,STARLINK-3657,PAYLOAD,2022-10-25 06:38:35,15.08829981,0.0001436,53.2164,147.1443,80.9214,279.194,-0.00012076,-2.209e-05,0.0,0 STARLINK-3657,1 51990U 22025AL  22298.27679731 -.00002209  00000-0 -12076-3 0  9994,2 51990  53.2164 147.1443 0001436  80.9214 279.1940 15.08829981 36539,6917.911,95.438,540.769,538.783,0.0
51990.0,STARLINK-3657,PAYLOAD,2022-10-25 19:21:40,15.08831205,0.0001211999999999,53.2165,144.7658,80.0388,280.0741,-7.64e-05,-1.503e-05,0.0,0 STARLINK-3657,1 51990U 22025AL  22298.80671861 -.00001503  00000-0 -76400-4 0  9997,2 51990  53.2165 144.7658 0001212  80.0388 280.0741 15.08831205 35515,6917.906999999997,95.438,540.611,538.934,0.0
51990.0,STARLINK-3657,PAYLOAD,2022-10-26 06:29:22,15.08834305,0.0001231999999999,53.2166,142.6843,81.2235,278.8897,-5.171100000000002e-05,-1.111e-05,0.0,0 STARLINK-3657,1 51990U 22025AL  22299.27039851 -.00001111  00000-0 -51711-4 0  9999,2 51990  53.2166 142.6843 0001232  81.2235 278.8897 15.08834305 36685,6917.898,95.438,540.615,538.911,0.0
51990.0,STARLINK-3657,PAYLOAD,2022-10-26 12:50:54,15.08835391,0.0001188,53.2165,141.4947,80.1485,279.9641,-4.5903e-05,-1.018e-05,0.0,0 STARLINK-3657,1 51990U 22025AL  22299.53535875 -.00001018  00000-0 -45903-4 0  9997,2 51990  53.2165 141.4947 0001188  80.1485 279.9641 15.08835391 35629,6917.894,95.438,540.581,538.938,0.0
51990.0,STARLINK-3657,PAYLOAD,2022-10-26 20:47:51,15.08820898,0.000117,53.2165,140.0081,78.3903,281.7221,0.00021412,3.12e-05,0.0,0 STARLINK-3657,1 51990U 22025AL  22299.86656292  .00003120  00000-0  21412-3 0  9992,2 51990  53.2165 140.0081 0001170  78.3903 281.7221 15.08820898 35674,6917.939,95.439,540.613,538.994,0.0
51990.0,STARLINK-3657,PAYLOAD,2022-10-27 06:20:09,15.08825874,0.0001154,53.2164,138.2239,78.9848,281.1274,0.00025083,3.705e-05,0.0,0 STARLINK-3657,1 51990U 22025AL  22300.26400273  .00003705  00000-0  25083-3 0  9992,2 51990  53.2164 138.2239 0001154  78.9848 281.1274 15.08825874 35731,6917.924,95.438,540.587,538.99,0.0
51990.0,STARLINK-3657,PAYLOAD,2022-10-27 15:52:28,15.08840045,0.0001125,53.2165,136.4397,81.2176,278.8943,0.00014106,1.958e-05,0.0,0 STARLINK-3657,1 51990U 22025AL  22300.66143839  .00001958  00000-0  14106-3 0  9990,2 51990  53.2165 136.4397 0001125  81.2176 278.8943 15.08840045 36897,6917.88,95.438,540.524,538.967,0.0
51990.0,STARLINK-3657,PAYLOAD,2022-10-27 19:03:14,15.0884363,0.0001123,53.2165,135.8449,80.5686,279.5433,0.00013021,1.785e-05,0.0,0 STARLINK-3657,1 51990U 22025AL  22300.79391666  .00001785  00000-0  13021-3 0  9990,2 51990  53.2165 135.8449 0001123  80.5686 279.5433 15.08843630 35810,6917.869000000002,95.437,540.511,538.957,0.0
51990.0,STARLINK-3657,PAYLOAD,2022-10-28 06:10:55,15.08849705,0.0001136,53.2165,133.7633,80.2348,279.8773,0.00015851,2.236e-05,0.0,0 STARLINK-3657,1 51990U 22025AL  22301.25759058  .00002236  00000-0  15851-3 0  9990,2 51990  53.2165 133.7633 0001136  80.2348 279.8773 15.08849705 35884,6917.851,95.437,540.502,538.93,0.0
51990.0,STARLINK-3657,PAYLOAD,2022-10-28 18:54:00,15.08849101,0.0001105,53.2167,131.3841,81.2554,278.8563,7.3371e-05,8.8e-06,0.0,0 STARLINK-3657,1 51990U 22025AL  22301.78751077  .00000880  00000-0  73371-4 0  9996,2 51990  53.2167 131.3841 0001105  81.2554 278.8563 15.08849101 35962,6917.853,95.437,540.482,538.953,0.0
51990.0,STARLINK-3657,PAYLOAD,2022-10-28 22:04:47,15.08847361,0.0001115999999999,53.2167,130.7895,81.0098,279.1021,5.7239e-05,6.23e-06,0.0,0 STARLINK-3657,1 51990U 22025AL  22301.91999170  .00000623  00000-0  57239-4 0  9999,2 51990  53.2167 130.7895 0001116  81.0098 279.1021 15.08847361 37081,6917.858,95.437,540.495,538.951,0.0
51990.0,STARLINK-3657,PAYLOAD,2022-10-29 06:01:42,15.08850805,0.0001121,53.2168,129.3025,80.5411,279.5707,6.875800000000001e-05,8.07e-06,0.0,0 STARLINK-3657,1 51990U 22025AL  22302.25118723  .00000807  00000-0  68758-4 0  9996,2 51990  53.2168 129.3025 0001121  80.5411 279.5707 15.08850805 36036,6917.847,95.437,540.488,538.937,0.0
51990.0,STARLINK-3657,PAYLOAD,2022-10-29 18:44:48,15.08842829,0.0001199,53.217,126.9234,81.1151,278.9977,-3.1434e-05,-7.88e-06,0.0,0 STARLINK-3657,1 51990U 22025AL  22302.78111289 -.00000788  00000-0 -31434-4 0  9995,2 51990  53.2170 126.9234 0001199  81.1151 278.9977 15.08842829 36115,6917.871999999999,95.437,540.566,538.9069999999998,0.0
51990.0,STARLINK-3657,PAYLOAD,2022-10-30 18:35:34,15.088456900000002,0.0001423,53.2177,122.463,83.7653,276.3502,-2.8699e-05,-7.45e-06,0.0,0 STARLINK-3657,1 51990U 22025AL  22303.77470466 -.00000745  00000-0 -28699-4 0  9992,2 51990  53.2177 122.4630 0001423  83.7653 276.3502 15.08845690 36269,6917.863,95.437,540.712,538.744,0.0
51990.0,STARLINK-3657,PAYLOAD,2022-10-30 23:21:44,15.08837442,0.0001296,53.2168,121.5712,78.8171,281.2966,-2.7439e-05,-7.25e-06,0.0,0 STARLINK-3657,1 51990U 22025AL  22303.97342950 -.00000725  00000-0 -27439-4 0  9999,2 51990  53.2168 121.5712 0001296  78.8171 281.2966 15.08837442 36296,6917.888000000001,95.438,540.65,538.857,0.0
